[{"OBJECT_NAME":"CARTOSAT-2B","OBJECT_ID":"2010-035A","EPOCH":"2026-03-09T09:22:05.678400","MEAN_MOTION":14.78772269,"ECCENTRICITY":0.00124689,"INCLINATION":97.8747,"RA_OF_ASC_NODE":119.6773,"ARG_OF_PERICENTER":150.1325,"MEAN_ANOMALY":210.06,"EPHEMERIS_TYPE":0,"CLASSIFICATION_TYPE":"U","NORAD_CAT_ID":36795,"ELEMENT_SET_NO":999,"REV_AT_EPOCH":84510,"BSTAR":0.0001830405,"MEAN_MOTION_DOT":1.295e-5,"MEAN_MOTION_DDOT":0},{"OBJECT_NAME":"KUIPER-00098","OBJECT_ID":"2025-171F","EPOCH":"2026-03-09T22:36:41.125824","MEAN_MOTION":14.79916038,"ECCENTRICITY":0.0001212,"INCLINATION":51.8988,"RA_OF_ASC_NODE":161.9719,"ARG_OF_PERICENTER":176.5287,"MEAN_ANOMALY":183.5684,"EPHEMERIS_TYPE":0,"CLASSIFICATION_TYPE":"U","NORAD_CAT_ID":65137,"ELEMENT_SET_NO":999,"REV_AT_EPOCH":3220,"BSTAR":0.00080666104,"MEAN_MOTION_DOT":5.931e-5,"MEAN_MOTION_DDOT":0}]
